[{"OBJECT_NAME":"TEVEL2-4","OBJECT_ID":"2025-052D","EPOCH":"2026-03-09T16:39:37.129536","MEAN_MOTION":15.30925813,"ECCENTRICITY":0.0004733,"INCLINATION":97.4009,"RA_OF_ASC_NODE":325.1237,"ARG_OF_PERICENTER":95.3468,"MEAN_ANOMALY":264.8313,"EPHEMERIS_TYPE":0,"CLASSIFICATION_TYPE":"U","NORAD_CAT_ID":63213,"ELEMENT_SET_NO":999,"REV_AT_EPOCH":5487,"BSTAR":0.00070362503,"MEAN_MOTION_DOT":0.0002099,"MEAN_MOTION_DDOT":0},{"OBJECT_NAME":"STARLINK-35929","OBJECT_ID":"2025-271J","EPOCH":"2026-03-09T12:25:18.362496","MEAN_MOTION":15.30143185,"ECCENTRICITY":0.00016389,"INCLINATION":53.1596,"RA_OF_ASC_NODE":140.4994,"ARG_OF_PERICENTER":48.6022,"MEAN_ANOMALY":311.512,"EPHEMERIS_TYPE":0,"CLASSIFICATION_TYPE":"U","NORAD_CAT_ID":66625,"ELEMENT_SET_NO":999,"REV_AT_EPOCH":1754,"BSTAR":0.00085400054,"MEAN_MOTION_DOT":0.00024975,"MEAN_MOTION_DDOT":0}]
